{
    "links": {
        "self": "http://www.neowsapp.com/rest/v1/neo/54073334?api_key=iIulBulltgU6a56xZRHN4H3l9WmuAYTsLGpBGhQ2"
    },
    "id": "54073334",
    "neo_reference_id": "54073334",
    "name": "(2020 TF7)",
    "designation": "2020 TF7",
    "nasa_jpl_url": "http://ssd.jpl.nasa.gov/sbdb.cgi?sstr=54073334",
    "absolute_magnitude_h": 28.448,
    "estimated_diameter": {
        "kilometers": {
            "estimated_diameter_min": 0.0054319402,
            "estimated_diameter_max": 0.0121461874
        },
        "meters": {
            "estimated_diameter_min": 5.4319401554,
            "estimated_diameter_max": 12.1461874373
        },
        "miles": {
            "estimated_diameter_min": 0.0033752501,
            "estimated_diameter_max": 0.0075472886
        },
        "feet": {
            "estimated_diameter_min": 17.8213265396,
            "estimated_diameter_max": 39.8496975917
        }
    },
    "is_potentially_hazardous_asteroid": false,
    "close_approach_data": [
        {
            "close_approach_date": "2020-10-17",
            "close_approach_date_full": "2020-Oct-17 20:25",
            "epoch_date_close_approach": 1602966300000,
            "relative_velocity": {
                "kilometers_per_second": "7.8586415951",
                "kilometers_per_hour": "28291.1097421873",
                "miles_per_hour": "17578.9953839719"
            },
            "miss_distance": {
                "astronomical": "0.0128232633",
                "lunar": "4.9882494237",
                "kilometers": "1918332.876129171",
                "miles": "1191996.7756017198"
            },
            "orbiting_body": "Earth"
        }
    ],
    "orbital_data": {
        "orbit_id": "1",
        "orbit_determination_date": "2020-10-17 11:12:04",
        "first_observation_date": "2020-10-15",
        "last_observation_date": "2020-10-17",
        "data_arc_in_days": 2,
        "observations_used": 15,
        "orbit_uncertainty": "8",
        "minimum_orbit_intersection": ".00310094",
        "jupiter_tisserand_invariant": "3.725",
        "epoch_osculation": "2459138.5",
        "eccentricity": ".5017635060396967",
        "semi_major_axis": "1.952173604981294",
        "inclination": "1.574510172423683",
        "ascending_node_longitude": "202.9929999397067",
        "orbital_period": "996.2677717220411",
        "perihelion_distance": ".9726441325477261",
        "perihelion_argument": "207.889253615972",
        "aphelion_distance": "2.931703077414862",
        "perihelion_time": "2459161.279621264570",
        "mean_anomaly": "351.7686149366546",
        "mean_motion": ".3613486355959732",
        "equinox": "J2000",
        "orbit_class": {
            "orbit_class_type": "APO",
            "orbit_class_description": "Near-Earth asteroid orbits which cross the Earth’s orbit similar to that of 1862 Apollo",
            "orbit_class_range": "a (semi-major axis) > 1.0 AU; q (perihelion) < 1.017 AU"
        }
    },
    "is_sentry_object": false
}